*******************************************************************************
Ephemeris / WWW_USER Mon Mar 10 06:43:35 2025 Pasadena, USA      / Horizons    
*******************************************************************************
Target body name: (2018 TG6)                      {source: JPL#30}
Center body name: Earth (399)                     {source: DE441}
Center-site name: Mauna Kea
*******************************************************************************
Start time      : A.D. 2018-Nov-23 03:51:00.0000 UT      
Stop  time      : A.D. 2018-Nov-23 16:25:00.0000 UT      
Step-size       : 1 minutes
*******************************************************************************
Target pole/equ : undefined
Target radii    : undefined                                                    
Center geodetic : 204.5278, 19.8260847, 4.21024   {E-lon(deg),Lat(deg),Alt(km)}
Center cylindric: 204.5278, 6006.35451, 2151.0229 {E-lon(deg),Dxy(km),Dz(km)}
Center pole/equ : ITRF93                          {East-longitude positive}
Center radii    : 6378.137, 6378.137, 6356.752 km {Equator_a, b, pole_c}       
Target primary  : Sun
Vis. interferer : MOON (R_eq= 1737.400) km        {source: DE441}
Rel. light bend : Sun                             {source: DE441}
Rel. lght bnd GM: 1.3271E+11 km^3/s^2                                          
Small-body perts: Yes                             {source: SB441-N16}
Atmos refraction: NO (AIRLESS)
RA format       : HMS
Time format     : CAL 
Calendar mode   : Mixed Julian/Gregorian
RTS-only print  : NO       
EOP file        : eop.250307.p250603                                           
EOP coverage    : DATA-BASED 1962-JAN-20 TO 2025-MAR-07. PREDICTS-> 2025-JUN-02
Units conversion: 1 au= 149597870.700 km, c= 299792.458 km/s, 1 day= 86400.0 s 
Table cut-offs 1: Elevation (-90.0deg=NO ),Airmass (>38.000=NO), Daylight (YES)
Table cut-offs 2: Solar elongation (  0.0,180.0=NO ),Local Hour Angle( 0.0=NO )
Table cut-offs 3: RA/DEC angular rate (     0.0=NO )                           
*******************************************************************************
Initial IAU76/J2000 heliocentric ecliptic osculating elements (au, days, deg.):
  EPOCH=  2458431.5 ! 2018-Nov-09.00 (TDB)         Residual RMS= .2345         
   EC= .08078462401503236  QR= .9719826736009184   TP= 2458484.4320189627      
   OM= 45.37159736002829   W=  55.46172815883946   IN= 1.097814612439332       
  Equivalent ICRF heliocentric cartesian coordinates (au, au/d):
   X= 7.039692724255667E-01  Y= 6.572194580492579E-01  Z= 2.849862807208282E-01
  VX=-1.330010453008250E-02 VY= 1.042346427712734E-02 VZ= 4.885657766154543E-03
Asteroid physical parameters (km, seconds, rotational period in hours):        
   GM= n.a.                RAD= n.a.               ROTPER= n.a.                
   H= 27.25                G= .150                 B-V= n.a.                   
                           ALBEDO= n.a.            STYP= n.a.                  
*******************************************************************************
 Date__(UT)__HR:MN     R.A._________(ICRF)_________DEC
******************************************************
$$SOE
 2018-Nov-23 03:51 Cm  22 20 57.731800 +14 32 05.48135
 2018-Nov-23 03:52 Cm  22 20 57.060880 +14 32 09.26374
 2018-Nov-23 03:53 Cm  22 20 56.389750 +14 32 13.04296
 2018-Nov-23 03:54 Cm  22 20 55.718414 +14 32 16.81898
 2018-Nov-23 03:55 Cm  22 20 55.046876 +14 32 20.59181
 2018-Nov-23 03:56 Cm  22 20 54.375139 +14 32 24.36145
 2018-Nov-23 03:57 Cm  22 20 53.703209 +14 32 28.12789
 2018-Nov-23 03:58 Cm  22 20 53.031089 +14 32 31.89112
 2018-Nov-23 03:59 Cm  22 20 52.358783 +14 32 35.65116
 2018-Nov-23 04:00 Cm  22 20 51.686295 +14 32 39.40798
 2018-Nov-23 04:01 Cm  22 20 51.013629 +14 32 43.16159
 2018-Nov-23 04:02 Cm  22 20 50.340789 +14 32 46.91198
 2018-Nov-23 04:03 Cm  22 20 49.667779 +14 32 50.65915
 2018-Nov-23 04:04 Cm  22 20 48.994604 +14 32 54.40310
 2018-Nov-23 04:05 Nm  22 20 48.321266 +14 32 58.14383
 2018-Nov-23 04:06 Nm  22 20 47.647771 +14 33 01.88133
 2018-Nov-23 04:07 Nm  22 20 46.974122 +14 33 05.61560
 2018-Nov-23 04:08 Nm  22 20 46.300324 +14 33 09.34663
 2018-Nov-23 04:09 Nm  22 20 45.626380 +14 33 13.07443
 2018-Nov-23 04:10 Nm  22 20 44.952294 +14 33 16.79898
 2018-Nov-23 04:11 Nm  22 20 44.278071 +14 33 20.52030
 2018-Nov-23 04:12 Nm  22 20 43.603715 +14 33 24.23837
 2018-Nov-23 04:13 Nm  22 20 42.929229 +14 33 27.95319
 2018-Nov-23 04:14 Nm  22 20 42.254617 +14 33 31.66476
 2018-Nov-23 04:15 Nm  22 20 41.579885 +14 33 35.37308
 2018-Nov-23 04:16 Nm  22 20 40.905035 +14 33 39.07815
 2018-Nov-23 04:17 Nm  22 20 40.230072 +14 33 42.77995
 2018-Nov-23 04:18 Nm  22 20 39.555000 +14 33 46.47850
 2018-Nov-23 04:19 Nm  22 20 38.879824 +14 33 50.17379
 2018-Nov-23 04:20 Nm  22 20 38.204546 +14 33 53.86582
 2018-Nov-23 04:21 Nm  22 20 37.529171 +14 33 57.55457
 2018-Nov-23 04:22 Nm  22 20 36.853704 +14 34 01.24007
 2018-Nov-23 04:23 Nm  22 20 36.178148 +14 34 04.92229
 2018-Nov-23 04:24 Nm  22 20 35.502508 +14 34 08.60124
 2018-Nov-23 04:25 Nm  22 20 34.826786 +14 34 12.27692
 2018-Nov-23 04:26 Nm  22 20 34.150989 +14 34 15.94932
 2018-Nov-23 04:27 Nm  22 20 33.475119 +14 34 19.61845
 2018-Nov-23 04:28 Nm  22 20 32.799181 +14 34 23.28430
 2018-Nov-23 04:29 Nm  22 20 32.123179 +14 34 26.94688
 2018-Nov-23 04:30 Nm  22 20 31.447117 +14 34 30.60617
 2018-Nov-23 04:31 Nm  22 20 30.770998 +14 34 34.26218
 2018-Nov-23 04:32 Am  22 20 30.094828 +14 34 37.91490
 2018-Nov-23 04:33 Am  22 20 29.418610 +14 34 41.56435
 2018-Nov-23 04:34 Am  22 20 28.742349 +14 34 45.21050
 2018-Nov-23 04:35 At  22 20 28.066048 +14 34 48.85338
 2018-Nov-23 04:36 Am  22 20 27.389711 +14 34 52.49296
 2018-Nov-23 04:37 Am  22 20 26.713343 +14 34 56.12925
 2018-Nov-23 04:38 Am  22 20 26.036947 +14 34 59.76226
 2018-Nov-23 04:39 Am  22 20 25.360528 +14 35 03.39198
 2018-Nov-23 04:40 Am  22 20 24.684091 +14 35 07.01840
 2018-Nov-23 04:41 Am  22 20 24.007638 +14 35 10.64153
 2018-Nov-23 04:42 Am  22 20 23.331174 +14 35 14.26138
 2018-Nov-23 04:43 Am  22 20 22.654703 +14 35 17.87793
 2018-Nov-23 04:44 Am  22 20 21.978229 +14 35 21.49118
 2018-Nov-23 04:45 Am  22 20 21.301757 +14 35 25.10115
 2018-Nov-23 04:46 Am  22 20 20.625290 +14 35 28.70782
 2018-Nov-23 04:47 Am  22 20 19.948833 +14 35 32.31119
 2018-Nov-23 04:48 Am  22 20 19.272390 +14 35 35.91127
 2018-Nov-23 04:49 Am  22 20 18.595964 +14 35 39.50806
 2018-Nov-23 04:50 Am  22 20 17.919560 +14 35 43.10155
 2018-Nov-23 04:51 Am  22 20 17.243181 +14 35 46.69175
 2018-Nov-23 04:52 Am  22 20 16.566833 +14 35 50.27866
 2018-Nov-23 04:53 Am  22 20 15.890519 +14 35 53.86227
 2018-Nov-23 04:54 Am  22 20 15.214243 +14 35 57.44259
 2018-Nov-23 04:55 Am  22 20 14.538009 +14 36 01.01961
 2018-Nov-23 04:56 Am  22 20 13.861821 +14 36 04.59334
 2018-Nov-23 04:57 Am  22 20 13.185684 +14 36 08.16378
 2018-Nov-23 04:58 Am  22 20 12.509602 +14 36 11.73093
 2018-Nov-23 04:59  m  22 20 11.833578 +14 36 15.29478
 2018-Nov-23 05:00  m  22 20 11.157616 +14 36 18.85535
 2018-Nov-23 05:01  m  22 20 10.481722 +14 36 22.41262
 2018-Nov-23 05:02  m  22 20 09.805898 +14 36 25.96661
 2018-Nov-23 05:03  m  22 20 09.130149 +14 36 29.51730
 2018-Nov-23 05:04  m  22 20 08.454479 +14 36 33.06471
 2018-Nov-23 05:05  m  22 20 07.778892 +14 36 36.60883
 2018-Nov-23 05:06  m  22 20 07.103392 +14 36 40.14967
 2018-Nov-23 05:07  m  22 20 06.427984 +14 36 43.68722
 2018-Nov-23 05:08  m  22 20 05.752670 +14 36 47.22149
 2018-Nov-23 05:09  m  22 20 05.077456 +14 36 50.75247
 2018-Nov-23 05:10  m  22 20 04.402346 +14 36 54.28018
 2018-Nov-23 05:11  m  22 20 03.727342 +14 36 57.80460
 2018-Nov-23 05:12  m  22 20 03.052450 +14 37 01.32575
 2018-Nov-23 05:13  m  22 20 02.377674 +14 37 04.84362
 2018-Nov-23 05:14  m  22 20 01.703018 +14 37 08.35822
 2018-Nov-23 05:15  m  22 20 01.028485 +14 37 11.86954
 2018-Nov-23 05:16  m  22 20 00.354079 +14 37 15.37759
 2018-Nov-23 05:17  m  22 19 59.679806 +14 37 18.88238
 2018-Nov-23 05:18  m  22 19 59.005668 +14 37 22.38389
 2018-Nov-23 05:19  m  22 19 58.331670 +14 37 25.88214
 2018-Nov-23 05:20  m  22 19 57.657816 +14 37 29.37713
 2018-Nov-23 05:21  m  22 19 56.984109 +14 37 32.86885
 2018-Nov-23 05:22  m  22 19 56.310555 +14 37 36.35731
 2018-Nov-23 05:23  m  22 19 55.637156 +14 37 39.84252
 2018-Nov-23 05:24  m  22 19 54.963918 +14 37 43.32447
 2018-Nov-23 05:25  m  22 19 54.290843 +14 37 46.80317
 2018-Nov-23 05:26  m  22 19 53.617937 +14 37 50.27862
 2018-Nov-23 05:27  m  22 19 52.945202 +14 37 53.75081
 2018-Nov-23 05:28  m  22 19 52.272643 +14 37 57.21977
 2018-Nov-23 05:29  m  22 19 51.600265 +14 38 00.68548
 2018-Nov-23 05:30  m  22 19 50.928070 +14 38 04.14795
 2018-Nov-23 05:31  m  22 19 50.256063 +14 38 07.60719
 2018-Nov-23 05:32  m  22 19 49.584249 +14 38 11.06318
 2018-Nov-23 05:33  m  22 19 48.912630 +14 38 14.51595
 2018-Nov-23 05:34  m  22 19 48.241211 +14 38 17.96549
 2018-Nov-23 05:35  m  22 19 47.569996 +14 38 21.41180
 2018-Nov-23 05:36  m  22 19 46.898990 +14 38 24.85489
 2018-Nov-23 05:37  m  22 19 46.228194 +14 38 28.29477
 2018-Nov-23 05:38  m  22 19 45.557615 +14 38 31.73142
 2018-Nov-23 05:39  m  22 19 44.887256 +14 38 35.16486
 2018-Nov-23 05:40  m  22 19 44.217120 +14 38 38.59509
 2018-Nov-23 05:41  m  22 19 43.547212 +14 38 42.02212
 2018-Nov-23 05:42  m  22 19 42.877536 +14 38 45.44594
 2018-Nov-23 05:43  m  22 19 42.208095 +14 38 48.86656
 2018-Nov-23 05:44  m  22 19 41.538894 +14 38 52.28399
 2018-Nov-23 05:45  m  22 19 40.869936 +14 38 55.69823
 2018-Nov-23 05:46  m  22 19 40.201226 +14 38 59.10927
 2018-Nov-23 05:47  m  22 19 39.532767 +14 39 02.51714
 2018-Nov-23 05:48  m  22 19 38.864563 +14 39 05.92182
 2018-Nov-23 05:49  m  22 19 38.196618 +14 39 09.32333
 2018-Nov-23 05:50  m  22 19 37.528936 +14 39 12.72166
 2018-Nov-23 05:51  m  22 19 36.861521 +14 39 16.11682
 2018-Nov-23 05:52  m  22 19 36.194377 +14 39 19.50882
 2018-Nov-23 05:53  m  22 19 35.527508 +14 39 22.89766
